NORAD_CAT_ID,OBJECT_NAME,OBJECT_TYPE,EPOCH,MEAN_MOTION,ECCENTRICITY,INCLINATION,RA_OF_ASC_NODE,ARG_OF_PERICENTER,MEAN_ANOMALY,BSTAR,MEAN_MOTION_DOT,MEAN_MOTION_DDOT,TLE_LINE0,TLE_LINE1,TLE_LINE2,SEMIMAJOR_AXIS,PERIOD,APOGEE,PERIGEE,DECAYED
52312.0,STARLINK-3752,PAYLOAD,2023-01-29 00:57:13,15.08840572,0.0001607,53.2165,147.2585,91.8542,268.2634,5.2649e-05,5.5e-06,0.0,0 STARLINK-3752,1 52312U 22041BD  23029.03973395  .00000550  00000-0  52649-4 0  9997,2 52312  53.2165 147.2585 0001607  91.8542 268.2634 15.08840572 44427,6917.879,95.438,540.855,538.632,0.0
52312.0,STARLINK-3752,PAYLOAD,2023-01-29 15:15:40,15.08865084,0.0001334,53.215,144.5799,94.8351,265.2794,-0.00027815,-4.715e-05,0.0,0 STARLINK-3752,1 52312U 22041BD  23029.63588809 -.00004715  00000-0 -27815-3 0  9990,2 52312  53.2150 144.5799 0001334  94.8351 265.2794 15.08865084 44515,6917.804,95.436,540.592,538.746,0.0
52312.0,STARLINK-3752,PAYLOAD,2023-01-30 07:09:33,15.08832679,0.0001389,53.2151,141.6064,87.0851,273.03,3.8557e-05,3.26e-06,0.0,0 STARLINK-3752,1 52312U 22041BD  23030.29830082  .00000326  00000-0  38557-4 0  9995,2 52312  53.2151 141.6064 0001389  87.0851 273.0300 15.08832679 44613,6917.903,95.438,540.729,538.807,0.0
52312.0,STARLINK-3752,PAYLOAD,2023-01-30 11:55:42,15.08833865,0.0001229,53.2148,140.7135,92.3836,267.7297,4.4231e-05,4.16e-06,0.0,0 STARLINK-3752,1 52312U 22041BD  23030.49701971  .00000416  00000-0  44231-4 0  9997,2 52312  53.2148 140.7135 0001229  92.3836 267.7297 15.08833865 44649,6917.899,95.438,540.614,538.914,0.0
52312.0,STARLINK-3752,PAYLOAD,2023-01-31 00:38:47,15.08841018,0.0001216,53.2149,138.3346,87.1466,272.9665,2.4353e-05,1e-06,0.0,0 STARLINK-3752,1 52312U 22041BD  23031.02693620  .00000100  00000-0  24353-4 0  9991,2 52312  53.2149 138.3346 0001216  87.1466 272.9665 15.08841018 44729,6917.877,95.437,540.583,538.901,0.0
52312.0,STARLINK-3752,PAYLOAD,2023-01-31 11:46:29,15.08837249,0.0001204,53.2147,136.2527,89.8702,270.2428,8.0578e-05,9.95e-06,0.0,0 STARLINK-3752,1 52312U 22041BD  23031.49061696  .00000995  00000-0  80578-4 0  9997,2 52312  53.2147 136.2527 0001204  89.8702 270.2428 15.08837249 44790,6917.889,95.438,540.587,538.921,0.0
52312.0,STARLINK-3752,PAYLOAD,2023-01-31 16:32:37,15.08848979,0.0001176,53.2148,135.3589,105.3762,254.736,7.1671e-05,8.53e-06,0.0,0 STARLINK-3752,1 52312U 22041BD  23031.68932867  .00000853  00000-0  71671-4 0  9992,2 52312  53.2148 135.3589 0001176 105.3762 254.7360 15.08848979 44825,6917.853,95.437,540.531,538.904,0.0
52312.0,STARLINK-3752,PAYLOAD,2023-02-01 11:37:16,15.08838751,0.0001273,53.2136,131.7906,105.384,254.7293,8.5346e-05,1.071e-05,0.0,0 STARLINK-3752,1 52312U 22041BD  23032.48421382  .00001071  00000-0  85346-4 0  9993,2 52312  53.2136 131.7906 0001273 105.3840 254.7293 15.08838751 44945,6917.884,95.438,540.63,538.869,0.0
52312.0,STARLINK-3752,PAYLOAD,2023-02-01 13:12:38,15.08843857,0.0001169,53.2148,131.4946,102.4445,257.6678,6.9875e-05,8.25e-06,0.0,0 STARLINK-3752,1 52312U 22041BD  23032.55045126  .00000825  00000-0  69875-4 0  9994,2 52312  53.2148 131.4946 0001169 102.4445 257.6678 15.08843857 44955,6917.869,95.437,540.542,538.925,0.0
52312.0,STARLINK-3752,PAYLOAD,2023-02-02 11:28:03,15.08834596,9.93e-05,53.2154,127.3318,110.1513,249.9586,-5.3689e-06,-3.73e-06,0.0,0 STARLINK-3752,1 52312U 22041BD  23033.47782045 -.00000373  00000-0 -53689-5 0  9991,2 52312  53.2154 127.3318 0000993 110.1513 249.9586 15.08834596 45093,6917.897,95.438,540.449,539.075,0.0
52312.0,STARLINK-3752,PAYLOAD,2023-02-02 22:35:45,15.08836624,9.52e-05,53.2147,125.2506,96.2617,263.8484,-9.7268e-05,-1.835e-05,0.0,0 STARLINK-3752,1 52312U 22041BD  23033.94150326 -.00001835  00000-0 -97268-4 0  9998,2 52312  53.2147 125.2506 0000952  96.2617 263.8484 15.08836624 45169,6917.891,95.438,540.414,539.097,0.0
52312.0,STARLINK-3752,PAYLOAD,2023-02-03 09:43:27,15.08834968,8.84e-05,53.2147,123.1689,97.4622,262.6471,-1.7641e-05,-5.68e-06,0.0,0 STARLINK-3752,1 52312U 22041BD  23034.40518443 -.00000568  00000-0 -17641-4 0  9997,2 52312  53.2147 123.1689 0000884  97.4622 262.6471 15.08834968 45231,6917.896,95.438,540.372,539.149,0.0
52312.0,STARLINK-3752,PAYLOAD,2023-02-03 14:29:36,15.08847029,0.0001109,53.2145,122.2771,103.2711,256.8405,-4.054e-05,-9.33e-06,0.0,0 STARLINK-3752,1 52312U 22041BD  23034.60389767 -.00000933  00000-0 -40540-4 0  9994,2 52312  53.2145 122.2771 0001109 103.2711 256.8405 15.08847029 45264,6917.859,95.437,540.491,538.957,0.0
52312.0,STARLINK-3752,PAYLOAD,2023-02-04 06:23:28,15.08834689,7.71e-05,53.2149,119.3028,96.8717,263.2362,5.1659e-05,5.34e-06,0.0,0 STARLINK-3752,1 52312U 22041BD  23035.26630455  .00000534  00000-0  51659-4 0  9998,2 52312  53.2149 119.3028 0000771  96.8717 263.2362 15.08834689 45360,6917.897,95.438,540.295,539.228,0.0
52312.0,STARLINK-3752,PAYLOAD,2023-02-04 11:09:37,15.08841296,8.02e-05,53.2147,118.4106,99.401,260.7073,0.0001015,1.328e-05,0.0,0 STARLINK-3752,1 52312U 22041BD  23035.46501878  .00001328  00000-0  10150-3 0  9998,2 52312  53.2147 118.4106 0000802  99.4010 260.7073 15.08841296 45391,6917.876,95.437,540.296,539.187,0.0
52312.0,STARLINK-3752,PAYLOAD,2023-02-04 12:45:00,15.08844456,8.42e-05,53.215,118.1133,98.9764,261.1323,0.0001259,1.717e-05,0.0,0 STARLINK-3752,1 52312U 22041BD  23035.53125610  .00001717  00000-0  12590-3 0  9994,2 52312  53.2150 118.1133 0000842  98.9764 261.1323 15.08844456 45402,6917.867,95.437,540.314,539.149,0.0
52312.0,STARLINK-3752,PAYLOAD,2023-02-05 12:35:48,15.08837074,0.0001128,53.2159,113.6538,86.4092,273.7029,-1.5329e-05,-5.32e-06,0.0,0 STARLINK-3752,1 52312U 22041BD  23036.52486897 -.00000532  00000-0 -15329-4 0  9991,2 52312  53.2159 113.6538 0001128  86.4092 273.7029 15.08837074 45550,6917.889,95.438,540.535,538.974,0.0
52312.0,STARLINK-3752,PAYLOAD,2023-02-05 22:08:07,15.08838199,0.0001128,53.2163,111.8695,89.3784,270.7337,4.6343e-05,4.5e-06,0.0,0 STARLINK-3752,1 52312U 22041BD  23036.92230628  .00000450  00000-0  46343-4 0  9991,2 52312  53.2163 111.8695 0001128  89.3784 270.7337 15.08838199 45614,6917.886,95.438,540.531,538.971,0.0
52312.0,STARLINK-3752,PAYLOAD,2023-02-06 10:51:11,15.08847572,0.0001256,53.2164,109.4904,93.5932,266.5204,2.586e-05,1.24e-06,0.0,0 STARLINK-3752,1 52312U 22041BD  23037.45222119  .00000124  00000-0  25860-4 0  9995,2 52312  53.2164 109.4904 0001256  93.5932 266.5204 15.08847572 45694,6917.857,95.437,540.591,538.853,0.0
52312.0,STARLINK-3752,PAYLOAD,2023-02-06 12:26:34,15.08849891,0.0001125,53.2164,109.1932,87.4653,272.6468,4.7244e-05,4.64e-06,0.0,0 STARLINK-3752,1 52312U 22041BD  23037.51845889  .00000464  00000-0  47244-4 0  9994,2 52312  53.2164 109.1932 0001125  87.4653 272.6468 15.08849891 45707,6917.85,95.437,540.493,538.937,0.0
52312.0,STARLINK-3752,PAYLOAD,2023-02-06 14:01:57,15.08851752,0.0001153,53.2154,108.8944,95.4539,264.6585,5.1643e-05,5.34e-06,0.0,0 STARLINK-3752,1 52312U 22041BD  23037.58469699  .00000534  00000-0  51643-4 0  9998,2 52312  53.2154 108.8944 0001153  95.4539 264.6585 15.08851752 45719,6917.844,95.437,540.507,538.912,0.0
52312.0,STARLINK-3752,PAYLOAD,2023-02-07 10:41:57,15.08852765,0.0001317,53.215,105.0291,81.797,278.3172,0.00016519,2.343e-05,0.0,0 STARLINK-3752,1 52312U 22041BD  23038.44580992  .00002343  00000-0  16519-3 0  9996,2 52312  53.2150 105.0291 0001317  81.7970 278.3172 15.08852765 45841,6917.841,95.437,540.617,538.795,0.0
52312.0,STARLINK-3752,PAYLOAD,2023-02-07 21:49:39,15.08852253,0.0001304,53.215,102.9489,76.0201,284.0937,0.00011851,1.599e-05,0.0,0 STARLINK-3752,1 52312U 22041BD  23038.90948890  .00001599  00000-0  11851-3 0  9998,2 52312  53.2150 102.9489 0001304  76.0201 284.0937 15.08852253 45919,6917.843,95.437,540.61,538.806,0.0
52312.0,STARLINK-3752,PAYLOAD,2023-02-08 04:11:13,15.08834316,0.0001339,53.2151,101.7577,96.5151,263.5994,-6.1734e-05,-1.27e-05,0.0,0 STARLINK-3752,1 52312U 22041BD  23039.17446468 -.00001270  00000-0 -61734-4 0  9996,2 52312  53.2151 101.7577 0001339  96.5151 263.5994 15.08834316 45953,6917.898,95.438,540.689,538.836,0.0
52312.0,STARLINK-3752,PAYLOAD,2023-02-08 10:32:46,15.08838868,0.0001377,53.2148,100.5688,84.7452,275.3697,-6.8022e-05,-1.37e-05,0.0,0 STARLINK-3752,1 52312U 22041BD  23039.43942271 -.00001370  00000-0 -68022-4 0  9996,2 52312  53.2148 100.5688 0001377  84.7452 275.3697 15.08838868 45995,6917.884,95.438,540.701,538.796,0.0
52312.0,STARLINK-3752,PAYLOAD,2023-02-08 18:29:19,15.09105487,0.0001557,53.2156,99.0796,159.6308,200.4747,0.0020915,0.000334,0.0,0 STARLINK-3752,1 52312U 22041BD  23039.77036816  .00033400  00000-0  20915-2 0  9996,2 52312  53.2156  99.0796 0001557 159.6308 200.4747 15.09105487 46045,6917.069,95.421,540.011,537.857,0.0
52312.0,STARLINK-3752,PAYLOAD,2023-02-09 04:01:23,15.09229435,0.0001745,53.215,97.297,61.2327,298.8841,0.0028894,0.00046496,0.0,0 STARLINK-3752,1 52312U 22041BD  23040.16763788  .00046496  00000-0  28894-2 0  9999,2 52312  53.2150  97.2970 0001745  61.2327 298.8841 15.09229435 46104,6916.69,95.413,539.762,537.348,0.0
52312.0,STARLINK-3752,PAYLOAD,2023-02-09 10:22:32,15.09469224,0.0001485,53.2157,96.1066,97.6014,262.5147,0.0046333,0.00075536,0.0,0 STARLINK-3752,1 52312U 22041BD  23040.43231914  .00075536  00000-0  46333-2 0  9995,2 52312  53.2157  96.1066 0001485  97.6014 262.5147 15.09469224 46145,6915.958,95.398,538.85,536.796,0.0
52312.0,STARLINK-3752,PAYLOAD,2023-02-09 16:43:47,15.09588347,0.0001429,53.216,94.9136,77.7734,282.3418,0.0053181,0.00087171,0.0,0 STARLINK-3752,1 52312U 22041BD  23040.69708076  .00087171  00000-0  53181-2 0  9998,2 52312  53.2160  94.9136 0001429  77.7734 282.3418 15.09588347 46182,6915.594,95.39,538.447,536.471,0.0
52312.0,STARLINK-3752,PAYLOAD,2023-02-10 03:50:53,15.09800823,9.05e-05,53.2151,92.8247,148.1787,211.926,0.006543,0.00108266,0.0,0 STARLINK-3752,1 52312U 22041BD  23041.16034388  .00108266  00000-0  65430-2 0  9998,2 52312  53.2151  92.8247 0000905 148.1787 211.9260 15.09800823 46258,6914.945,95.377,537.436,536.184,0.0
